HELIOS 1B               
1 25977U 99064A   26093.73332833  .00003511  00000+0  39074-3 0  9995
2 25977  98.1670 356.7103 0001529  44.4908 315.6430 14.87802445688988
TERRA                   
1 25994U 99068A   26093.85447931  .00000802  00000+0  17236-3 0  9993
2 25994  97.9540 146.3212 0003667  99.7878 347.2020 14.61043899398759
SL-16 R/B               
1 26070U 00006B   26093.88173714  .00000135  00000+0  92955-4 0  9992
2 26070  71.0038  44.8632 0015264 150.2868 209.9125 14.15830989352120
TITAN 4B R/B            
1 26474U 00047B   26093.87258866  .00006619  00000+0  40885-3 0  9993
2 26474  67.9902 329.6875 0040273   5.8963 354.2652 15.09803869396717
ENVISAT                 
1 27386U 02009A   26093.84116375  .00000221  00000+0  85271-4 0  9993
2 27386  98.3770  46.8462 0001185  82.1438 284.1270 14.39046390262792
IDEFIX & ARIANE 42P R/B 
1 27422U 02021B   26093.80673504  .00000491  00000+0  20272-3 0  9994
2 27422  98.5899  32.1172 0012849 111.1865 249.0692 14.31044630247618
AQUA                    
1 27424U 02022A   26093.86440322  .00001798  00000+0  36802-3 0  9990
2 27424  98.4218  61.6962 0001368 115.5450 274.4084 14.62039818272419
CZ-4B R/B               
1 27432U 02024C   26093.76777785  .00000086  00000+0  67163-4 0  9990
2 27432  98.8783 147.0419 0049272 312.6056 155.3358 14.14552410232785
MIDORI II (ADEOS-II)    
1 27597U 02056A   26093.86523728  .00000531  00000+0  22634-3 0  9992
2 27597  98.7814  52.5239 0000423  20.5091 339.6107 14.29305855213895
H-2A R/B                
1 27601U 02056E   26093.90086074  .00000550  00000+0  20654-3 0  9992
2 27601  98.3248  53.3135 0071420  86.5117 337.7023 14.33779831217724
CZ-4B R/B               
1 28059U 03049C   26093.68993705  .00000639  00000+0  15764-3 0  9990
2 28059  98.6897  89.5798 0048639 154.1824 206.1814 14.55044400190238
CZ-2C R/B               
1 28222U 04012C   26093.72088050  .00081064  00000+0  73317-3 0  9995
2 28222  97.7165 161.4365 0013605 211.2967 148.7485 15.67722362208190
SL-16 R/B               
1 28353U 04021B   26093.70143564  .00000398  00000+0  23192-3 0  9997
2 28353  71.0012 180.0052 0005359 338.4894  21.6002 14.14599312126370
CZ-4B R/B               
1 28415U 04035C   26093.64262337  .00014127  00000+0  48915-3 0  9999
2 28415  97.3450 127.5878 0030266 238.1218 121.7077 15.29524075183726
CZ-2C R/B               
1 28480U 04046B   26093.72809258  .00000296  00000+0  12423-3 0  9998
2 28480  98.1976   7.1519 0140631  80.9095 280.7969 14.27002341112079
ARIANE 5 R/B            
1 28499U 04049H   26093.49123332  .00001503  00000+0  17169-3 0  9991
2 28499  98.2662 262.8833 0082818 270.7211  88.4514 14.85316331149476
CZ-2D R/B               
1 28738U 05024B   26093.64114436  .00065698  00000+0  73353-3 0  9995
2 28738  97.3567 109.7429 0001839 287.6932  72.4125 15.62572775143676
